CCSDS_OMM_VERS = 2.0
CREATION_DATE  = 
ORIGINATOR     = 

OBJECT_NAME    = STARLINK-36332
OBJECT_ID      = 2026-034N
CENTER_NAME    = EARTH
REF_FRAME      = TEME
TIME_SYSTEM    = UTC
MEAN_ELEMENT_THEORY = SGP/SGP4

EPOCH          = 2026-03-18T12:14:35.643264
MEAN_MOTION    = 15.81163080
ECCENTRICITY   = .00022448
INCLINATION    = 53.1582
RA_OF_ASC_NODE = 167.0455
ARG_OF_PERICENTER = 139.7616
MEAN_ANOMALY   = 220.3574

EPHEMERIS_TYPE = 0
CLASSIFICATION_TYPE = U
NORAD_CAT_ID   = 67862
ELEMENT_SET_NO = 999
REV_AT_EPOCH   = 533
BSTAR          = .18262217E-2
MEAN_MOTION_DOT = .381165E-2
MEAN_MOTION_DDOT = 0

CCSDS_OMM_VERS = 2.0
CREATION_DATE  = 
ORIGINATOR     = 

OBJECT_NAME    = STARLINK-36835
OBJECT_ID      = 2026-034P
CENTER_NAME    = EARTH
REF_FRAME      = TEME
TIME_SYSTEM    = UTC
MEAN_ELEMENT_THEORY = SGP/SGP4

EPOCH          = 2026-03-18T22:50:45.815424
MEAN_MOTION    = 15.81006946
ECCENTRICITY   = .00008604
INCLINATION    = 53.1586
RA_OF_ASC_NODE = 164.8221
ARG_OF_PERICENTER = 45.2962
MEAN_ANOMALY   = 314.8131

EPHEMERIS_TYPE = 0
CLASSIFICATION_TYPE = U
NORAD_CAT_ID   = 67863
ELEMENT_SET_NO = 999
REV_AT_EPOCH   = 540
BSTAR          = .15644345E-2
MEAN_MOTION_DOT = .321844E-2
MEAN_MOTION_DDOT = 0

CCSDS_OMM_VERS = 2.0
CREATION_DATE  = 
ORIGINATOR     = 

OBJECT_NAME    = STARLINK-36831
OBJECT_ID      = 2026-034Q
CENTER_NAME    = EARTH
REF_FRAME      = TEME
TIME_SYSTEM    = UTC
MEAN_ELEMENT_THEORY = SGP/SGP4

EPOCH          = 2026-03-18T22:49:41.656512
MEAN_MOTION    = 15.80988921
ECCENTRICITY   = .00032155
INCLINATION    = 53.1589
RA_OF_ASC_NODE = 164.8178
ARG_OF_PERICENTER = 67.9829
MEAN_ANOMALY   = 292.1536

EPHEMERIS_TYPE = 0
CLASSIFICATION_TYPE = U
NORAD_CAT_ID   = 67864
ELEMENT_SET_NO = 999
REV_AT_EPOCH   = 540
BSTAR          = .17279541E-2
MEAN_MOTION_DOT = .356731E-2
MEAN_MOTION_DDOT = 0

CCSDS_OMM_VERS = 2.0
CREATION_DATE  = 
ORIGINATOR     = 

OBJECT_NAME    = STARLINK-36738
OBJECT_ID      = 2026-034R
CENTER_NAME    = EARTH
REF_FRAME      = TEME
TIME_SYSTEM    = UTC
MEAN_ELEMENT_THEORY = SGP/SGP4

EPOCH          = 2026-03-18T22:48:37.269504
MEAN_MOTION    = 15.80984836
ECCENTRICITY   = .00042828
INCLINATION    = 53.1596
RA_OF_ASC_NODE = 164.8120
ARG_OF_PERICENTER = 76.8150
MEAN_ANOMALY   = 283.3351

EPHEMERIS_TYPE = 0
CLASSIFICATION_TYPE = U
NORAD_CAT_ID   = 67865
ELEMENT_SET_NO = 999
REV_AT_EPOCH   = 540
BSTAR          = .19134986E-2
MEAN_MOTION_DOT = .39695E-2
MEAN_MOTION_DDOT = 0

CCSDS_OMM_VERS = 2.0
CREATION_DATE  = 
ORIGINATOR     = 

OBJECT_NAME    = STARLINK-36780
OBJECT_ID      = 2026-034S
CENTER_NAME    = EARTH
REF_FRAME      = TEME
TIME_SYSTEM    = UTC
MEAN_ELEMENT_THEORY = SGP/SGP4

EPOCH          = 2026-03-18T06:06:07.612992
MEAN_MOTION    = 15.80937680
ECCENTRICITY   = .0001413
INCLINATION    = 53.1589
RA_OF_ASC_NODE = 168.2915
ARG_OF_PERICENTER = 56.7784
MEAN_ANOMALY   = 303.3374

EPHEMERIS_TYPE = 0
CLASSIFICATION_TYPE = U
NORAD_CAT_ID   = 67866
ELEMENT_SET_NO = 999
REV_AT_EPOCH   = 529
BSTAR          = .11704E-2
MEAN_MOTION_DOT = .237475E-2
MEAN_MOTION_DDOT = 0

CCSDS_OMM_VERS = 2.0
CREATION_DATE  = 
ORIGINATOR     = 

OBJECT_NAME    = STARLINK-36761
OBJECT_ID      = 2026-034T
CENTER_NAME    = EARTH
REF_FRAME      = TEME
TIME_SYSTEM    = UTC
MEAN_ELEMENT_THEORY = SGP/SGP4

EPOCH          = 2026-03-18T22:46:26.988672
MEAN_MOTION    = 15.80944980
ECCENTRICITY   = .00022839
INCLINATION    = 53.1590
RA_OF_ASC_NODE = 164.8009
ARG_OF_PERICENTER = 76.2449
MEAN_ANOMALY   = 283.8828

EPHEMERIS_TYPE = 0
CLASSIFICATION_TYPE = U
NORAD_CAT_ID   = 67867
ELEMENT_SET_NO = 999
REV_AT_EPOCH   = 540
BSTAR          = .13230603E-2
MEAN_MOTION_DOT = .269647E-2
MEAN_MOTION_DDOT = 0

CCSDS_OMM_VERS = 2.0
CREATION_DATE  = 
ORIGINATOR     = 

OBJECT_NAME    = STARLINK-36762
OBJECT_ID      = 2026-034U
CENTER_NAME    = EARTH
REF_FRAME      = TEME
TIME_SYSTEM    = UTC
MEAN_ELEMENT_THEORY = SGP/SGP4

EPOCH          = 2026-03-18T22:45:22.543776
MEAN_MOTION    = 15.81257816
ECCENTRICITY   = .00024715
INCLINATION    = 53.1593
RA_OF_ASC_NODE = 164.7968
ARG_OF_PERICENTER = 40.2868
MEAN_ANOMALY   = 319.8338

EPHEMERIS_TYPE = 0
CLASSIFICATION_TYPE = U
NORAD_CAT_ID   = 67868
ELEMENT_SET_NO = 999
REV_AT_EPOCH   = 540
BSTAR          = .15481339E-2
MEAN_MOTION_DOT = .322204E-2
MEAN_MOTION_DDOT = 0

CCSDS_OMM_VERS = 2.0
CREATION_DATE  = 
ORIGINATOR     = 

OBJECT_NAME    = STARLINK-36779
OBJECT_ID      = 2026-034V
CENTER_NAME    = EARTH
REF_FRAME      = TEME
TIME_SYSTEM    = UTC
MEAN_ELEMENT_THEORY = SGP/SGP4

EPOCH          = 2026-03-18T22:44:17.442240
MEAN_MOTION    = 15.81143139
ECCENTRICITY   = .0001949
INCLINATION    = 53.1588
RA_OF_ASC_NODE = 164.7912
ARG_OF_PERICENTER = 48.2308
MEAN_ANOMALY   = 311.8881

EPHEMERIS_TYPE = 0
CLASSIFICATION_TYPE = U
NORAD_CAT_ID   = 67869
ELEMENT_SET_NO = 999
REV_AT_EPOCH   = 540
BSTAR          = .21529455E-2
MEAN_MOTION_DOT = .452865E-2
MEAN_MOTION_DDOT = 0

CCSDS_OMM_VERS = 2.0
CREATION_DATE  = 
ORIGINATOR     = 

OBJECT_NAME    = STARLINK-36770
OBJECT_ID      = 2026-034W
CENTER_NAME    = EARTH
REF_FRAME      = TEME
TIME_SYSTEM    = UTC
MEAN_ELEMENT_THEORY = SGP/SGP4

EPOCH          = 2026-03-18T22:42:07.538976
MEAN_MOTION    = 15.80996605
ECCENTRICITY   = .00013325
INCLINATION    = 53.1590
RA_OF_ASC_NODE = 164.7805
ARG_OF_PERICENTER = 64.4790
MEAN_ANOMALY   = 295.6371

EPHEMERIS_TYPE = 0
CLASSIFICATION_TYPE = U
NORAD_CAT_ID   = 67870
ELEMENT_SET_NO = 999
REV_AT_EPOCH   = 540
BSTAR          = .12874986E-2
MEAN_MOTION_DOT = .262788E-2
MEAN_MOTION_DDOT = 0

CCSDS_OMM_VERS = 2.0
CREATION_DATE  = 
ORIGINATOR     = 

OBJECT_NAME    = STARLINK-36769
OBJECT_ID      = 2026-034X
CENTER_NAME    = EARTH
REF_FRAME      = TEME
TIME_SYSTEM    = UTC
MEAN_ELEMENT_THEORY = SGP/SGP4

EPOCH          = 2026-03-18T22:43:13.010304
MEAN_MOTION    = 15.80945533
ECCENTRICITY   = .00035545
INCLINATION    = 53.1586
RA_OF_ASC_NODE = 164.7862
ARG_OF_PERICENTER = 73.7401
MEAN_ANOMALY   = 286.4013

EPHEMERIS_TYPE = 0
CLASSIFICATION_TYPE = U
NORAD_CAT_ID   = 67871
ELEMENT_SET_NO = 999
REV_AT_EPOCH   = 540
BSTAR          = .12749018E-2
MEAN_MOTION_DOT = .259543E-2
MEAN_MOTION_DDOT = 0

CCSDS_OMM_VERS = 2.0
CREATION_DATE  = 
ORIGINATOR     = 

OBJECT_NAME    = STARLINK-36786
OBJECT_ID      = 2026-034Y
CENTER_NAME    = EARTH
REF_FRAME      = TEME
TIME_SYSTEM    = UTC
MEAN_ELEMENT_THEORY = SGP/SGP4

EPOCH          = 2026-03-18T22:41:03.407712
MEAN_MOTION    = 15.80994892
ECCENTRICITY   = .00036164
INCLINATION    = 53.1589
RA_OF_ASC_NODE = 164.7760
ARG_OF_PERICENTER = 74.5973
MEAN_ANOMALY   = 285.5449

EPHEMERIS_TYPE = 0
CLASSIFICATION_TYPE = U
NORAD_CAT_ID   = 67872
ELEMENT_SET_NO = 999
REV_AT_EPOCH   = 540
BSTAR          = .19005505E-2
MEAN_MOTION_DOT = .394283E-2
MEAN_MOTION_DDOT = 0

CCSDS_OMM_VERS = 2.0
CREATION_DATE  = 
ORIGINATOR     = 

OBJECT_NAME    = STARLINK-36783
OBJECT_ID      = 2026-034Z
CENTER_NAME    = EARTH
REF_FRAME      = TEME
TIME_SYSTEM    = UTC
MEAN_ELEMENT_THEORY = SGP/SGP4

EPOCH          = 2026-03-18T22:39:58.275936
MEAN_MOTION    = 15.81056172
ECCENTRICITY   = .0002531
INCLINATION    = 53.1593
RA_OF_ASC_NODE = 164.7704
ARG_OF_PERICENTER = 56.0310
MEAN_ANOMALY   = 304.0953

EPHEMERIS_TYPE = 0
CLASSIFICATION_TYPE = U
NORAD_CAT_ID   = 67873
ELEMENT_SET_NO = 999
REV_AT_EPOCH   = 540
BSTAR          = .19921991E-2
MEAN_MOTION_DOT = .415497E-2
MEAN_MOTION_DDOT = 0

