STARLINK-36332          
1 67862U 26034N   26077.51013476  .00381165  00000+0  18262-2 0  9997
2 67862  53.1582 167.0455 0002244 139.7616 220.3574 15.81163080  5335
STARLINK-36835          
1 67863U 26034P   26077.95191916  .00321844  00000+0  15644-2 0  9991
2 67863  53.1586 164.8221 0000860  45.2962 314.8131 15.81006946  5406
STARLINK-36831          
1 67864U 26034Q   26077.95117658  .00356731  00000+0  17280-2 0  9994
2 67864  53.1589 164.8178 0003215  67.9829 292.1536 15.80988921  5409
STARLINK-36738          
1 67865U 26034R   26077.95043136  .00396950  00000+0  19135-2 0  9992
2 67865  53.1596 164.8120 0004282  76.8150 283.3351 15.80984836  5404
STARLINK-36780          
1 67866U 26034S   26077.25425478  .00237475  00000+0  11704-2 0  9999
2 67866  53.1589 168.2915 0001413  56.7784 303.3374 15.80937680  5290
STARLINK-36761          
1 67867U 26034T   26077.94892348  .00269647  00000+0  13231-2 0  9993
2 67867  53.1590 164.8009 0002283  76.2449 283.8828 15.80944980  5400
STARLINK-36762          
1 67868U 26034U   26077.94817759  .00322204  00000+0  15481-2 0  9995
2 67868  53.1593 164.7968 0002471  40.2868 319.8338 15.81257816  5404
STARLINK-36779          
1 67869U 26034V   26077.94742410  .00452865  00000+0  21529-2 0  9994
2 67869  53.1588 164.7912 0001949  48.2308 311.8881 15.81143139  5401
STARLINK-36770          
1 67870U 26034W   26077.94592059  .00262788  00000+0  12875-2 0  9995
2 67870  53.1590 164.7805 0001332  64.4790 295.6371 15.80996605  5404
STARLINK-36769          
1 67871U 26034X   26077.94667836  .00259543  00000+0  12749-2 0  9997
2 67871  53.1586 164.7862 0003554  73.7401 286.4013 15.80945533  5408
STARLINK-36786          
1 67872U 26034Y   26077.94517833  .00394283  00000+0  19006-2 0  9993
2 67872  53.1589 164.7760 0003616  74.5973 285.5449 15.80994892  5406
STARLINK-36783          
1 67873U 26034Z   26077.94442449  .00415497  00000+0  19922-2 0  9992
2 67873  53.1593 164.7704 0002531  56.0310 304.0953 15.81056172  5403
